{"fetched_at":"2026-03-29T02:12:04Z","count":15717,"tles":[{"name":"COSMOS 2492 (754)","line1":"1 39620U 14012A   26085.27933052 -.00000029  00000+0  00000+0 0  9990","line2":"2 39620  65.3447 316.7556 0012642 328.9539  31.0243  2.13103147 93476","category":"Other"}]}